{
  "type": "FeatureCollection",
  "features": [
    {
      "type": "Feature",
      "properties": {
        "norad_id": 28054,
        "name": "DMSP 5D-3 F16 (USA 172)",
        "group": "weather",
        "lat": -65.23212181146522,
        "lon": 159.1011164627187,
        "alt_km": 851.4172633189874,
        "timestamp": "2025-12-07T18:50:16.367734+00:00",
        "meta_object_name": "DMSP 5D-3 F16 (USA 172)",
        "meta_object_id": "2003-048A",
        "meta_epoch": "2025-12-07T07:32:12.851232",
        "meta_mean_motion": 14.14421342,
        "meta_eccentricity": 0.00067178,
        "meta_inclination": 99.0049,
        "meta_ra_of_asc_node": 358.7283,
        "meta_arg_of_pericenter": 337.603,
        "meta_mean_anomaly": 32.9363,
        "meta_ephemeris_type": 0,
        "meta_classification_type": "U",
        "meta_norad_cat_id": 28054,
        "meta_element_set_no": 999,
        "meta_rev_at_epoch": 14236,
        "meta_bstar": 0.00016497167,
        "meta_mean_motion_dot": 2.7e-06,
        "meta_mean_motion_ddot": 0,
        "tle_line1": "1 28054U 03048A   25341.31403763  .00000270  00000+0  16497-3 0  9994",
        "tle_line2": "2 28054  99.0049 358.7283 0006717 337.6030  32.9363 14.14421342142369"
      },
      "geometry": {
        "type": "Point",
        "coordinates": [
          159.1011164627187,
          -65.23212181146522
        ]
      }
    },
    {
      "type": "Feature",
      "properties": {
        "norad_id": 28912,
        "name": "METEOSAT-9 (MSG-2)",
        "group": "weather",
        "lat": -1.6852028351434063,
        "lon": 45.131268406646946,
        "alt_km": 35801.63018070698,
        "timestamp": "2025-12-07T18:50:16.367784+00:00",
        "meta_object_name": "METEOSAT-9 (MSG-2)",
        "meta_object_id": "2005-049B",
        "meta_epoch": "2025-12-06T20:43:46.094016",
        "meta_mean_motion": 1.0027315,
        "meta_eccentricity": 0.00039617,
        "meta_inclination": 8.926,
        "meta_ra_of_asc_node": 56.0299,
        "meta_arg_of_pericenter": 188.459,
        "meta_mean_anomaly": 187.9596,
        "meta_ephemeris_type": 0,
        "meta_classification_type": "U",
        "meta_norad_cat_id": 28912,
        "meta_element_set_no": 999,
        "meta_rev_at_epoch": 507,
        "meta_bstar": 0,
        "meta_mean_motion_dot": 1.25e-06,
        "meta_mean_motion_ddot": 0,
        "tle_line1": "1 28912U 05049B   25340.86372794  .00000125  00000+0  00000+0 0  9996",
        "tle_line2": "2 28912   8.9260  56.0299 0003961 188.4590 187.9596  1.00273150  5070"
      },
      "geometry": {
        "type": "Point",
        "coordinates": [
          45.131268406646946,
          -1.6852028351434063
        ]
      }
    },
    {
      "type": "Feature",
      "properties": {
        "norad_id": 29522,
        "name": "DMSP 5D-3 F17 (USA 191)",
        "group": "weather",
        "lat": 1.4284004660273235,
        "lon": 167.49687337731748,
        "alt_km": 842.1536297178309,
        "timestamp": "2025-12-07T18:50:16.367801+00:00",
        "meta_object_name": "DMSP 5D-3 F17 (USA 191)",
        "meta_object_id": "2006-050A",
        "meta_epoch": "2025-12-07T06:06:58.268448",
        "meta_mean_motion": 14.14916111,
        "meta_eccentricity": 0.00092467,
        "meta_inclination": 98.7393,
        "meta_ra_of_asc_node": 346.7581,
        "meta_arg_of_pericenter": 241.7451,
        "meta_mean_anomaly": 118.2789,
        "meta_ephemeris_type": 0,
        "meta_classification_type": "U",
        "meta_norad_cat_id": 29522,
        "meta_element_set_no": 999,
        "meta_rev_at_epoch": 98527,
        "meta_bstar": 0.00018675577,
        "meta_mean_motion_dot": 3.18e-06,
        "meta_mean_motion_ddot": 0,
        "tle_line1": "1 29522U 06050A   25341.25484107  .00000318  00000+0  18676-3 0  9999",
        "tle_line2": "2 29522  98.7393 346.7581 0009246 241.7451 118.2789 14.14916111985276"
      },
      "geometry": {
        "type": "Point",
        "coordinates": [
          167.49687337731748,
          1.4284004660273235
        ]
      }
    },
    {
      "type": "Feature",
      "properties": {
        "norad_id": 32958,
        "name": "FENGYUN 3A",
        "group": "weather",
        "lat": 9.105457339431432,
        "lon": 102.8172151608124,
        "alt_km": 833.9995717401198,
        "timestamp": "2025-12-07T18:50:16.367815+00:00",
        "meta_object_name": "FENGYUN 3A",
        "meta_object_id": "2008-026A",
        "meta_epoch": "2025-12-07T06:11:39.369984",
        "meta_mean_motion": 14.19511949,
        "meta_eccentricity": 0.00081555,
        "meta_inclination": 98.669,
        "meta_ra_of_asc_node": 280.9005,
        "meta_arg_of_pericenter": 327.575,
        "meta_mean_anomaly": 32.4924,
        "meta_ephemeris_type": 0,
        "meta_classification_type": "U",
        "meta_norad_cat_id": 32958,
        "meta_element_set_no": 999,
        "meta_rev_at_epoch": 90817,
        "meta_bstar": 0.00013489445,
        "meta_mean_motion_dot": 2.41e-06,
        "meta_mean_motion_ddot": 0,
        "tle_line1": "1 32958U 08026A   25341.25809456  .00000241  00000+0  13489-3 0  9991",
        "tle_line2": "2 32958  98.6690 280.9005 0008155 327.5750  32.4924 14.19511949908172"
      },
      "geometry": {
        "type": "Point",
        "coordinates": [
          102.8172151608124,
          9.105457339431432
        ]
      }
    },
    {
      "type": "Feature",
      "properties": {
        "norad_id": 35491,
        "name": "GOES 14",
        "group": "weather",
        "lat": 0.2705391258030142,
        "lon": -108.93271913020621,
        "alt_km": 35768.5251975257,
        "timestamp": "2025-12-07T18:50:16.367830+00:00",
        "meta_object_name": "GOES 14",
        "meta_object_id": "2009-033A",
        "meta_epoch": "2025-12-07T07:18:29.919744",
        "meta_mean_motion": 1.00272941,
        "meta_eccentricity": 0.00041472,
        "meta_inclination": 1.1847,
        "meta_ra_of_asc_node": 85.4709,
        "meta_arg_of_pericenter": 153.8136,
        "meta_mean_anomaly": 198.356,
        "meta_ephemeris_type": 0,
        "meta_classification_type": "U",
        "meta_norad_cat_id": 35491,
        "meta_element_set_no": 999,
        "meta_rev_at_epoch": 466,
        "meta_bstar": 0,
        "meta_mean_motion_dot": -6.4e-07,
        "meta_mean_motion_ddot": 0,
        "tle_line1": "1 35491U 09033A   25341.30451296 -.00000064  00000+0  00000+0 0  9991",
        "tle_line2": "2 35491   1.1847  85.4709 0004147 153.8136 198.3560  1.00272941  4665"
      },
      "geometry": {
        "type": "Point",
        "coordinates": [
          -108.93271913020621,
          0.2705391258030142
        ]
      }
    },
    {
      "type": "Feature",
      "properties": {
        "norad_id": 35951,
        "name": "DMSP 5D-3 F18 (USA 210)",
        "group": "weather",
        "lat": 47.654163627244934,
        "lon": -51.669762439262186,
        "alt_km": 831.0187174521634,
        "timestamp": "2025-12-07T18:50:16.367843+00:00",
        "meta_object_name": "DMSP 5D-3 F18 (USA 210)",
        "meta_object_id": "2009-057A",
        "meta_epoch": "2025-12-07T05:01:52.985856",
        "meta_mean_motion": 14.14764117,
        "meta_eccentricity": 0.00121228,
        "meta_inclination": 98.8828,
        "meta_ra_of_asc_node": 317.6383,
        "meta_arg_of_pericenter": 77.1226,
        "meta_mean_anomaly": 283.1301,
        "meta_ephemeris_type": 0,
        "meta_classification_type": "U",
        "meta_norad_cat_id": 35951,
        "meta_element_set_no": 999,
        "meta_rev_at_epoch": 83244,
        "meta_bstar": 0.00025005636,
        "meta_mean_motion_dot": 4.38e-06,
        "meta_mean_motion_ddot": 0,
        "tle_line1": "1 35951U 09057A   25341.20964104  .00000438  00000+0  25006-3 0  9995",
        "tle_line2": "2 35951  98.8828 317.6383 0012122  77.1226 283.1301 14.14764117832447"
      },
      "geometry": {
        "type": "Point",
        "coordinates": [
          -51.669762439262186,
          47.654163627244934
        ]
      }
    },
    {
      "type": "Feature",
      "properties": {
        "norad_id": 36411,
        "name": "EWS-G2 (GOES 15)",
        "group": "weather",
        "lat": -0.3172990431219137,
        "lon": 60.83818838258955,
        "alt_km": 35811.369013386386,
        "timestamp": "2025-12-07T18:50:16.367856+00:00",
        "meta_object_name": "EWS-G2 (GOES 15)",
        "meta_object_id": "2010-008A",
        "meta_epoch": "2025-12-07T05:22:02.477856",
        "meta_mean_motion": 1.00268273,
        "meta_eccentricity": 0.00060089,
        "meta_inclination": 0.7997,
        "meta_ra_of_asc_node": 86.0673,
        "meta_arg_of_pericenter": 172.1046,
        "meta_mean_anomaly": 320.0453,
        "meta_ephemeris_type": 0,
        "meta_classification_type": "U",
        "meta_norad_cat_id": 36411,
        "meta_element_set_no": 999,
        "meta_rev_at_epoch": 5771,
        "meta_bstar": 0,
        "meta_mean_motion_dot": 4.2e-07,
        "meta_mean_motion_ddot": 0,
        "tle_line1": "1 36411U 10008A   25341.22363979  .00000042  00000+0  00000+0 0  9994",
        "tle_line2": "2 36411   0.7997  86.0673 0006008 172.1046 320.0453  1.00268273 57710"
      },
      "geometry": {
        "type": "Point",
        "coordinates": [
          60.83818838258955,
          -0.3172990431219137
        ]
      }
    }
  ]
}